C/2020 T2 (Palomar),e,27.8730,83.0482,150.3844,311.2482,0.0001795,0.99339857,0.0000,07/11.1504/2021,2000,g 11.0,3.2
# From MPEC 2021-N06
P/2020 T3 (PANSTARRS),e,7.2953,74.0164,357.0400,3.517490,0.1494014,0.59160143,28.1672,07/28.0/2021,2000,g 18.0,3.2
# From MPEC 2021-N06
C/2020 T4 (PANSTARRS),h,07/05.2533/2021,83.8140,50.6199,79.6063,1.000072,2.191840,2000,13.0,3.2
# From MPEC 2021-BE3
C/2020 T5 (Lemmon),e,66.5995,237.8616,90.2998,846.5096,0.0000400,0.99776832,0.0000,10/09.6267/2020,2000,g 16.0,4.0
# From MPEC 2021-N06
P/2020 U2 (PANSTARRS),e,6.4212,342.8996,84.6460,3.777744,0.1342318,0.51061622,28.7652,07/28.0/2021,2000,g 18.0,4.0
# From MPC xxxxx
C/2020 U3 (Rankin),e,30.1758,282.6798,124.2665,65.10031,0.0018764,0.96503567,0.3228,07/28.0/2021,2000,g 15.0,4.0
# From MPC xxxxx
C/2020 U4 (PANSTARRS),h,04/07.7889/2022,167.0367,120.0192,69.5194,1.001999,5.353874,2000,7.0,4.0
# From MPC xxxxx
C/2020 U5 (PANSTARRS),e,97.2746,107.3416,75.4124,10681,0.0000009,0.99964835,0.0000,04/27.8379/2022,2000,g  8.0,4.0
# From MPEC 2021-N06
C/2020 V2 (ZTF),h,05/08.4344/2023,131.6022,212.3478,162.3865,1.001356,2.228234,2000,4.9,4.0
# From MPEC 2021-N06
P/2020 V3 (PANSTARRS),e,23.0317,198.2744,249.3168,8.365726,0.0407332,0.25526464,6.9028,07/28.0/2021,2000,g  8.3,4.0
# From MPC xxxxx
P/2020 V4 (Rankin),e,14.2430,203.5066,256.9962,9.343472,0.0345097,0.44896961,0.3484,07/28.0/2021,2000,g  9.0,4.0
# From MPEC 2021-BE3
P/2020 W1 (Rankin),e,10.7919,124.2598,264.8300,7.199420,0.0510220,0.26549824,24.4438,07/28.0/2021,2000,g 10.0,4.0
# From MPEC 2021-BE3
C/2020 W5 (Lemmon),h,11/30.0974/2020,88.5840,75.5085,24.4806,1.000899,3.364224,2000,15.0,4.0
# From MPEC 2021-BE3
P/2020 X1 (ATLAS),e,31.6724,56.0325,323.5568,4.522261,0.1024874,0.36455617,38.0670,07/28.0/2021,2000,g 13.0,4.0
# From MPEC 2021-N06
C/2020 X2 (ATLAS),e,18.1904,105.4577,347.3422,16.39576,0.0148459,0.76650505,3.7736,07/28.0/2021,2000,g 10.6,4.0
# From MPEC 2021-N06
C/2020 X4 (Leonard),e,80.5239,161.8932,139.9845,43.24784,0.0034654,0.87961614,0.8833,07/28.0/2021,2000,g  9.0,4.0
# From MPEC 2021-N06
C/2020 Y2 (ATLAS),e,101.2907,26.5078,266.0977,1233,0.0000228,0.99745966,0.0000,06/17.6548/2022,2000,g  6.5,4.0
# From MPEC 2021-N06
C/2020 Y3 (ATLAS),e,83.0995,191.4292,342.0398,150.1605,0.0005356,0.98668625,0.0000,12/03.4758/2020,2000,g 13.5,4.0
# From MPEC 2021-N06
C/2021 A1 (Leonard),h,01/03.2964/2022,132.6858,255.8911,225.0910,1.000078,0.615214,2000,8.5,4.0
# From MPEC 2021-N06
C/2021 A2 (NEOWISE),e,106.9777,125.2379,338.8422,253.8800,0.0002436,0.99443482,0.0000,01/22.6261/2021,2000,g 13.5,4.0
# From MPC xxxxx
C/2021 A4 (NEOWISE),e,111.5710,307.0842,204.6621,43.00281,0.0034951,0.97336146,0.0000,03/20.0318/2021,2000,g 16.0,4.0
# From MPEC 2021-BE3
P/2021 A5 (PANSTARRS),e,18.1882,328.7672,61.1090,3.046218,0.1853798,0.13967947,47.9136,07/28.0/2021,2000,g 15.0,4.0
# From MPC xxxxx
C/2021 A6 (PANSTARRS),e,75.6105,164.0791,351.7450,11808,0.0000008,0.99932849,0.0000,05/04.9675/2021,2000,g  7.0,4.0
# From MPEC 2021-N06
C/2021 A7 (NEOWISE),e,78.1494,154.5191,356.0618,6746,0.0000018,0.99970833,0.0000,07/15.3223/2021,2000,g 10.0,4.0
# From MPC xxxxx
C/2021 A9 (PANSTARRS),h,12/01.5175/2023,158.0289,314.8407,211.4801,1.004362,7.757939,2000,6.0,4.0
# From MPEC 2021-N06
C/2021 A10 (NEOWISE),e,151.5250,188.3493,82.2693,93.05742,0.0010979,0.98636793,0.0000,03/15.2655/2021,2000,g 19.0,4.0
# From MPC xxxxx
C/2021 B2 (PANSTARRS),e,38.0937,120.5556,334.9685,342.9285,0.0001552,0.99267166,0.0000,05/04.2635/2021,2000,g 14.0,4.0
# From MPEC 2021-N06
C/2021 B3 (NEOWISE),e,119.4877,67.2871,293.5587,34.95477,0.0047692,0.93820153,0.6634,07/28.0/2021,2000,g 13.5,4.0
# From MPC xxxxx
C/2021 C1 (Rankin),h,12/07.1615/2020,143.0423,186.8926,336.3158,1.000064,3.481414,2000,11.5,4.0
# From MPC xxxxx
P/2021 C2 (PANSTARRS),e,21.9268,66.4921,78.8002,9.538333,0.0334576,0.48731721,5.1399,07/28.0/2021,2000,g 12.0,4.0
# From MPEC 2021-N06
C/2021 C3 (Catalina),e,122.1632,181.9213,357.1493,63.32875,0.0019557,0.96405344,0.3238,07/28.0/2021,2000,g 14.0,4.0
# From MPEC 2021-N06
C/2021 C4 (ATLAS),e,132.8432,194.2762,320.2322,5805,0.0000022,0.99922412,0.0000,01/17.0628/2021,2000,g  9.0,4.0
# From MPEC 2021-N06
C/2021 C5 (PANSTARRS),e,50.7876,323.6910,270.9162,7360,0.0000016,0.99955958,0.0000,02/10.9755/2023,2000,g  9.0,4.0
# From MPEC 2021-N06
C/2021 C6 (Lemmon),h,11/13.3350/2021,164.6259,332.1553,203.5651,1.002046,3.271299,2000,12.0,4.0
# From MPEC 2021-N06
C/2021 D1 (SWAN),e,31.4607,311.2714,72.2252,96.79034,0.0010350,0.99068288,0.0000,02/27.6119/2021,2000,g 13.0,4.0
# From MPEC 2021-N06
C/2021 D2 (ZTF),h,02/03.9921/2022,83.8313,305.6763,125.0303,1.001134,2.946328,2000,9.0,4.0
# From MPEC 2021-N06
A/2021 E2,e,167.4876,190.8122,342.4624,234.5504,0.0002744,0.99024411,0.0000,12/10.4705/2020,2000,g 15.0,2.0
# From MPEC 2021-N06
C/2021 E3 (ZTF),h,06/11.9676/2022,112.5659,104.4613,228.8530,1.000526,1.777420,2000,8.5,4.0
# From MPEC 2021-M78
A/2021 E4,e,116.3590,171.1725,48.2876,732.3058,0.0000497,0.99361485,0.0000,04/25.3886/2022,2000,g 13.5,2.0
# From MPEC 2021-N06
A/2021 F1,e,107.3142,203.4451,146.8206,238.2549,0.0002680,0.99582216,0.0000,04/06.8551/2022,2000,g 17.5,2.0
# From MPEC 2021-J72
C/2021 G1 (Leonard),e,131.5665,270.6917,107.4815,75.06597,0.0015154,0.95439124,0.0087,07/28.0/2021,2000,g 14.0,4.0
# From MPEC 2021-M79
A/2021 G2,e,48.4757,221.1403,343.3823,4558,0.0000032,0.99890820,0.0000,09/09.9252/2024,2000,g  8.5,2.0
# From MPEC 2021-M86
C/2021 G3 (PANSTARRS),h,10/18.7117/2021,102.8830,147.4188,10.6606,1.001157,5.181105,2000,10.5,4.0
# From MPC xxxxx
C/2021 J1 (Maury-Attard),e,92.7121,88.3168,147.3151,26.37582,0.0072760,0.93401374,1.1535,07/28.0/2021,2000,g 15.5,4.0
# From MPEC 2021-L24
C/2021 J2 (PANSTARRS),e,156.2090,23.3257,172.0533,119.6024,0.0007535,0.96064395,359.9575,07/28.0/2021,2000,g 12.0,4.0
# From MPEC 2021-O56
P/2021 J3 (ATLAS),e,14.5719,111.2392,125.8057,8.891131,0.0371765,0.44706679,28.1086,07/28.0/2021,2000,g  7.0,4.0
# From MPEC 2021-O56
C/2021 K1 (ATLAS),e,16.2761,140.9057,184.3086,12.74609,0.0216590,0.80402921,1.8282,07/28.0/2021,2000,g 11.0,4.0
# From MPEC 2021-O56
C/2021 K2 (MASTER),e,100.8185,282.2577,343.1920,3260,0.0000053,0.99832325,0.0000,09/07.9515/2021,2000,g  8.0,4.0
# From MPEC 2021-M87
C/2021 K3 (Catalina),h,02/02.9195/2022,134.8065,114.4399,182.0299,1.005235,5.228298,2000,10.0,4.0
# From MPEC 2021-O56
P/2021 L2 (Leonard),e,21.0692,266.6761,51.5377,4.053588,0.1207660,0.52176685,0.4174,07/28.0/2021,2000,g 17.0,4.0
# From MPEC 2021-M75
C/2021 L3 (Borisov),e,78.6041,344.9397,92.9996,144.9719,0.0005646,0.94207765,359.8717,07/28.0/2021,2000,g  6.0,4.0
# From MPEC 2021-O56
P/2021 L4 (PANSTARRS),e,16.9701,243.2235,234.7463,3.165221,0.1750241,0.11941800,121.0674,07/28.0/2021,2000,g 13.5,4.0
# From MPC xxxxx
P/2021 N1 (ZTF),e,11.5049,301.1450,21.1802,2.971149,0.1924498,0.67622737,9.9018,07/28.0/2021,2000,g 18.0,4.0
# From MPEC 2021-D07
P/2021 N2 (Fuls),e,12.9900,221.9346,174.6402,7.297478,0.0499971,0.47561939,355.3903,07/28.0/2021,2000,g  9.5,4.0
# From MPEC 2021-O39
C/2021 N3 (PANSTARRS),e,26.7418,337.5011,304.4118,158.0858,0.0004959,0.96393607,0.1710,07/28.0/2021,2000,g  8.5,4.0
# From MPEC 2021-O47
C/2021 O1 (Nishimura),p,08/12.9325/2021,27.3194,72.6471,0.796550,41.1717,2000,10.5,4.0
# From  98, 1083
1P/Halley,e,162.2540,58.7211,111.6555,17.87277,0.0130442,0.96618468,169.0126,07/28.0/2021,2000,g  4.0,6.0
# From MPEC 2021-O56
2P/Encke,e,11.8005,334.5152,186.6080,2.217462,0.2984831,0.84879572,118.3927,07/28.0/2021,2000,g 11.5,6.0
# From MPEC 2021-O56
4P/Faye,e,8.0083,192.9318,206.9946,3.823683,0.1318200,0.57662378,354.3545,07/28.0/2021,2000,g  8.0,6.0
# From MPEC 2021-O56
6P/d'Arrest,e,19.5123,138.9355,178.1025,3.497865,0.1506605,0.61273620,352.1990,07/28.0/2021,2000,g  7.5,16.0
# From MPEC 2021-O56
7P/Pons-Winnecke,e,22.3631,93.3746,172.5970,3.414257,0.1562283,0.63850579,9.6685,07/28.0/2021,2000,g 10.0,6.0
# From MPEC 2021-N06
8P/Tuttle,e,54.9111,270.2042,207.4883,5.707600,0.0722809,0.82023728,357.7783,07/28.0/2021,2000,g  8.0,8.0
# From MPEC 2021-F20
9P/Tempel,e,10.4697,68.7192,179.3378,3.146782,0.1765648,0.50926646,321.1680,07/28.0/2021,2000,g 12.5,4.0
# From MPEC 2021-O56
10P/Tempel,e,12.0394,117.8086,195.4951,3.060918,0.1840461,0.53855906,23.1421,07/28.0/2021,2000,g  5.0,10.0
# From MPC xxxxx
11P/Tempel-Swift-LINEAR,e,14.4206,238.9085,167.9539,3.283547,0.1656491,0.57708402,40.3739,07/28.0/2021,2000,g 16.7,4.0
# From  27, 604
12P/Pons-Brooks,e,74.1256,255.7636,199.0017,17.13681,0.0138934,0.95437994,346.1377,07/28.0/2021,2000,g  5.0,6.0
# From  27, 604
13P/Olbers,e,44.6223,85.9052,64.4527,16.71774,0.0144191,0.92974300,344.5807,07/28.0/2021,2000,g  5.0,6.0
# From MPEC 2021-F20
14P/Wolf,e,27.9130,202.0542,159.0135,4.258641,0.1121496,0.35698414,149.5167,07/28.0/2021,2000,g  5.5,12.0
# From MPEC 2021-O56
15P/Finlay,e,6.7976,13.7141,347.8233,3.505525,0.1501670,0.71702118,2.1814,07/28.0/2021,2000,g 12.0,4.0
# From MPC 92276
16P/Brooks,e,3.0119,138.8702,245.1742,3.655488,0.1410217,0.48622736,14.2196,07/28.0/2021,2000,g  7.5,10.0
# From MPEC 2021-O56
17P/Holmes,e,19.0322,326.6203,24.4704,3.635222,0.1422026,0.42762118,22.4928,07/28.0/2021,2000,g 10.0,6.0
# From MPEC 2021-O56
19P/Borrelly,e,29.3051,74.2591,351.8934,3.606252,0.1439196,0.63775239,332.8268,07/28.0/2021,2000,g  4.5,10.0
# From MPEC 2021-F20
21P/Giacobini-Zinner,e,32.0367,195.3490,172.8578,3.495767,0.1507962,0.71098445,158.5271,07/28.0/2021,2000,g 11.4,4.0
# From MPEC 2021-O56
22P/Kopff,e,4.7420,120.8365,163.0008,3.441231,0.1543951,0.54883634,324.0103,07/28.0/2021,2000,g  3.0,10.4
# From MPC 14747
23P/Brorsen-Metcalf,e,19.1339,312.4164,128.8058,16.94995,0.0141238,0.97136650,0.0000,08/05.5596/1989,2000,g 10.0,6.0
# From MPC110085
24P/Schaumasse,e,11.5394,78.6432,58.2276,4.052986,0.1207929,0.70838734,163.3949,07/28.0/2021,2000,g  6.5,14.0
# From MPC 94674
26P/Grigg-Skjellerup,e,22.4349,211.5403,2.1804,3.014293,0.1883328,0.64036101,194.1359,07/28.0/2021,2000,g 12.0,16.0
# From MPC 78188
